[{"OBJECT_NAME":"JILIN-1 GAOFEN 3A","OBJECT_ID":"2019-032C","EPOCH":"2026-03-09T17:53:24.364896","MEAN_MOTION":15.3027131,"ECCENTRICITY":0.00026181,"INCLINATION":44.9746,"RA_OF_ASC_NODE":183.2861,"ARG_OF_PERICENTER":111.29,"MEAN_ANOMALY":248.8263,"EPHEMERIS_TYPE":0,"CLASSIFICATION_TYPE":"U","NORAD_CAT_ID":44312,"ELEMENT_SET_NO":999,"REV_AT_EPOCH":37259,"BSTAR":0.00055381133,"MEAN_MOTION_DOT":0.00016264,"MEAN_MOTION_DDOT":0},{"OBJECT_NAME":"STARLINK-35368","OBJECT_ID":"2025-221H","EPOCH":"2026-03-09T06:34:47.184672","MEAN_MOTION":15.30197286,"ECCENTRICITY":0.00013179,"INCLINATION":53.1586,"RA_OF_ASC_NODE":90.7083,"ARG_OF_PERICENTER":62.0331,"MEAN_ANOMALY":298.0803,"EPHEMERIS_TYPE":0,"CLASSIFICATION_TYPE":"U","NORAD_CAT_ID":65830,"ELEMENT_SET_NO":999,"REV_AT_EPOCH":2597,"BSTAR":0.0008794841,"MEAN_MOTION_DOT":0.00025777,"MEAN_MOTION_DDOT":0}]
